NORAD_CAT_ID,OBJECT_NAME,OBJECT_TYPE,EPOCH,MEAN_MOTION,ECCENTRICITY,INCLINATION,RA_OF_ASC_NODE,ARG_OF_PERICENTER,MEAN_ANOMALY,BSTAR,MEAN_MOTION_DOT,MEAN_MOTION_DDOT,TLE_LINE0,TLE_LINE1,TLE_LINE2,SEMIMAJOR_AXIS,PERIOD,APOGEE,PERIGEE,DECAYED
51726.0,STARLINK-3527,PAYLOAD,2022-12-24 21:19:08,15.08850299,0.0003039,53.2154,175.0591,44.2458,315.8777,0.00011526,1.547e-05,0.0,0 STARLINK-3527,1 51726U 22016N   22358.88828818  .00001547  00000-0  11526-3 0  9998,2 51726  53.2154 175.0591 0003039  44.2458 315.8777 15.08850299 46817,6917.849,95.437,541.816,537.612,0.0
51726.0,STARLINK-3527,PAYLOAD,2022-12-25 11:37:36,15.08846369,0.0003256,53.2154,172.3836,47.6254,312.5013,-5.9527e-06,-3.84e-06,0.0,0 STARLINK-3527,1 51726U 22016N   22359.48445213 -.00000384  00000-0 -59527-5 0  9994,2 51726  53.2154 172.3836 0003256  47.6254 312.5013 15.08846369 47968,6917.861,95.437,541.9780000000002,537.4730000000002,0.0
51726.0,STARLINK-3527,PAYLOAD,2022-12-25 14:48:23,15.08840268,0.0003112,53.2154,171.7883,46.6901,313.435,-5.346e-06,-3.74e-06,0.0,0 STARLINK-3527,1 51726U 22016N   22359.61693497 -.00000374  00000-0 -53460-5 0  9997,2 51726  53.2154 171.7883 0003112  46.6901 313.4350 15.08840268 46923,6917.88,95.438,541.8969999999998,537.592,0.0
51726.0,STARLINK-3527,PAYLOAD,2022-12-25 21:09:55,15.08840304,0.0003121,53.2155,170.5989,46.9054,313.2199,-1.8458e-05,-5.83e-06,0.0,0 STARLINK-3527,1 51726U 22016N   22359.88189466 -.00000583  00000-0 -18458-4 0  9991,2 51726  53.2155 170.5989 0003121  46.9054 313.2199 15.08840304 48023,6917.879,95.438,541.904,537.585,0.0
51726.0,STARLINK-3527,PAYLOAD,2022-12-26 05:06:51,15.08843479,0.0003154,53.2155,169.1123,47.2573,312.8684,-1.4726e-06,-3.12e-06,0.0,0 STARLINK-3527,1 51726U 22016N   22360.21309213 -.00000312  00000-0 -14726-5 0  9999,2 51726  53.2155 169.1123 0003154  47.2573 312.8684 15.08843479 47011,6917.87,95.437,541.9169999999998,537.553,0.0
51726.0,STARLINK-3527,PAYLOAD,2022-12-26 21:00:41,15.08849053,0.0003172,53.2152,166.1383,48.3221,311.8043,1.9747e-05,2.6e-07,0.0,0 STARLINK-3527,1 51726U 22016N   22360.87548471  .00000026  00000-0  19747-4 0  9999,2 51726  53.2152 166.1383 0003172  48.3221 311.8043 15.08849053 48175,6917.853,95.437,541.9119999999998,537.523,0.0
51726.0,STARLINK-3527,PAYLOAD,2022-12-27 11:19:10,15.088375199999998,0.0003122,53.2153,163.4618,47.8001,312.3255,5.4649e-05,5.81e-06,0.0,0 STARLINK-3527,1 51726U 22016N   22361.47164838  .00000581  00000-0  54649-4 0  9993,2 51726  53.2153 163.4618 0003122  47.8001 312.3255 15.08837520 48269,6917.888000000001,95.438,541.913,537.5930000000002,0.0
51726.0,STARLINK-3527,PAYLOAD,2022-12-27 19:16:06,15.0883788,0.0003102,53.2153,161.975,48.1685,311.9572,3.8858e-05,3.3e-06,0.0,0 STARLINK-3527,1 51726U 22016N   22361.80284893  .00000330  00000-0  38858-4 0  9990,2 51726  53.2153 161.9750 0003102  48.1685 311.9572 15.08837880 47253,6917.887,95.438,541.898,537.606,0.0
51726.0,STARLINK-3527,PAYLOAD,2022-12-28 11:09:57,15.08843645,0.0003109999999999,53.2153,159.0009,49.0618,311.0643,4.6507e-05,4.52e-06,0.0,0 STARLINK-3527,1 51726U 22016N   22362.46524403  .00000452  00000-0  46507-4 0  9992,2 51726  53.2153 159.0009 0003110  49.0618 311.0643 15.08843645 47350,6917.869000000002,95.437,541.886,537.5830000000002,0.0
51726.0,STARLINK-3527,PAYLOAD,2022-12-28 14:20:42,15.08885281,0.000348,53.2153,158.406,49.4664,310.6631,-0.0005267,-8.673e-05,0.0,0 STARLINK-3527,1 51726U 22016N   22362.59771361 -.00008673  00000-0 -52670-3 0  9995,2 51726  53.2153 158.4060 0003480  49.4664 310.6631 15.08885281 48439,6917.7419999999975,95.435,542.014,537.2,0.0
51726.0,STARLINK-3527,PAYLOAD,2022-12-29 03:03:49,15.08836517,0.000306,53.2148,156.0272,47.2401,312.8848,-3.9623e-05,-9.19e-06,0.0,0 STARLINK-3527,1 51726U 22016N   22363.12765180 -.00000919  00000-0 -39623-4 0  9996,2 51726  53.2148 156.0272 0003060  47.2401 312.8848 15.08836517 48512,6917.891,95.438,541.873,537.639,0.0
51726.0,STARLINK-3527,PAYLOAD,2022-12-29 20:33:04,15.08827499,0.0003081,53.2154,152.7561,47.3083,312.8168,-6.416e-05,-1.309e-05,0.0,0 STARLINK-3527,1 51726U 22016N   22363.85630312 -.00001309  00000-0 -64160-4 0  9992,2 51726  53.2154 152.7561 0003081  47.3083 312.8168 15.08827499 48629,6917.919,95.438,541.915,537.6519999999998,0.0
51726.0,STARLINK-3527,PAYLOAD,2022-12-30 10:51:32,15.08834278,0.0003041999999999,53.2154,150.0798,47.578,312.5469,8.134699999999999e-05,1.006e-05,0.0,0 STARLINK-3527,1 51726U 22016N   22364.45245658  .00001006  00000-0  81347-4 0  9992,2 51726  53.2154 150.0798 0003042  47.5780 312.5469 15.08834278 48719,6917.898,95.438,541.867,537.658,0.0
51726.0,STARLINK-3527,PAYLOAD,2022-12-30 20:23:50,15.08844055,0.0003061999999999,53.2158,148.2952,48.2125,311.9128,0.00015895,2.242e-05,0.0,0 STARLINK-3527,1 51726U 22016N   22364.84989000  .00002242  00000-0  15895-3 0  9998,2 51726  53.2158 148.2952 0003062  48.2125 311.9128 15.08844055 48772,6917.868,95.437,541.851,537.615,0.0
51726.0,STARLINK-3527,PAYLOAD,2022-12-31 02:45:22,15.08851084,0.0003088,53.2164,147.1062,48.2321,311.8934,0.00019586,2.831e-05,0.0,0 STARLINK-3527,1 51726U 22016N   22365.11484378  .00002831  00000-0  19586-3 0  9992,2 51726  53.2164 147.1062 0003088  48.2321 311.8934 15.08851084 48814,6917.847,95.437,541.8480000000002,537.575,0.0
51726.0,STARLINK-3527,PAYLOAD,2022-12-31 18:39:14,15.08846664,0.0003002,53.2163,144.1325,48.1262,311.9986,0.00018047,2.585e-05,0.0,0 STARLINK-3527,1 51726U 22016N   22365.77724688  .00002585  00000-0  18047-3 0  9992,2 51726  53.2163 144.1325 0003002  48.1262 311.9986 15.08846664 48918,6917.86,95.437,541.802,537.648,0.0
51726.0,STARLINK-3527,PAYLOAD,2023-01-01 02:36:10,15.0883728,0.0003181,53.2155,142.6454,48.899,311.2276,0.0001014,1.325e-05,0.0,0 STARLINK-3527,1 51726U 22016N   23001.10845481  .00001325  00000-0  10140-3 0  9999,2 51726  53.2155 142.6454 0003181  48.8990 311.2276 15.08837280 48962,6917.889,95.438,541.9540000000002,537.553,0.0
51726.0,STARLINK-3527,PAYLOAD,2023-01-01 15:19:15,15.08842024,0.0003174,53.2162,140.266,48.9915,311.1351,-1.4242e-05,-5.15e-06,0.0,0 STARLINK-3527,1 51726U 22016N   23001.63837496 -.00000515  00000-0 -14242-4 0  9994,2 51726  53.2162 140.2660 0003174  48.9915 311.1351 15.08842024 47989,6917.874,95.437,541.935,537.543,0.0
51726.0,STARLINK-3527,PAYLOAD,2023-01-01 18:30:01,15.08839502,0.0002941,53.216,139.6711,52.7521,307.3739,-2.5201e-05,-6.900000000000003e-06,0.0,0 STARLINK-3527,1 51726U 22016N   23001.77085624 -.00000690  00000-0 -25201-4 0  9998,2 51726  53.2160 139.6711 0002941  52.7521 307.3739 15.08839502 48001,6917.882,95.438,541.781,537.712,0.0
51726.0,STARLINK-3527,PAYLOAD,2023-01-02 02:26:56,15.08851514,0.0002915,53.2165,138.1849,47.7356,312.3883,1.9525e-05,2.2e-07,0.0,0 STARLINK-3527,1 51726U 22016N   23002.10204637  .00000022  00000-0  19525-4 0  9992,2 51726  53.2165 138.1849 0002915  47.7356 312.3883 15.08851514 49119,6917.845,95.437,541.727,537.694,0.0
51726.0,STARLINK-3527,PAYLOAD,2023-01-02 15:10:02,15.08842596,0.0002844,53.216,135.8069,48.3959,311.7277,-2.7636e-05,-7.28e-06,0.0,0 STARLINK-3527,1 51726U 22016N   23002.63197119 -.00000728  00000-0 -27636-4 0  9993,2 51726  53.2160 135.8069 0002844  48.3959 311.7277 15.08842596 49197,6917.871999999999,95.437,541.705,537.77,0.0
51726.0,STARLINK-3527,PAYLOAD,2023-01-02 19:56:11,15.08842189,0.0002531,53.2147,134.9161,47.1174,313.003,-5.811e-05,-1.213e-05,0.0,0 STARLINK-3527,1 51726U 22016N   23002.83069105 -.00001213  00000-0 -58110-4 0  9999,2 51726  53.2147 134.9161 0002531  47.1174 313.0030 15.08842189 48160,6917.874,95.437,541.49,537.988,0.0
51726.0,STARLINK-3527,PAYLOAD,2023-01-03 02:17:44,15.0883511,0.0003126,53.2147,133.7261,44.3408,315.7834,-4.888600000000001e-05,-1.067e-05,0.0,0 STARLINK-3527,1 51726U 22016N   23003.09565716 -.00001067  00000-0 -48886-4 0  9993,2 51726  53.2147 133.7261 0003126  44.3408 315.7834 15.08835110 49267,6917.895,95.438,541.923,537.5980000000002,0.0
51726.0,STARLINK-3527,PAYLOAD,2023-01-04 14:51:36,15.08836945,0.0002753,53.216,126.8869,40.8076,319.3121,0.00014541,2.026e-05,0.0,0 STARLINK-3527,1 51726U 22016N   23004.61917697  .00002026  00000-0  14541-3 0  9995,2 51726  53.2160 126.8869 0002753  40.8076 319.3121 15.08836945 49497,6917.89,95.438,541.659,537.85,0.0
51726.0,STARLINK-3527,PAYLOAD,2023-01-05 00:23:56,15.0883137,0.0002896,53.2167,125.1015,42.0371,318.0843,-2.633e-05,-7.08e-06,0.0,0 STARLINK-3527,1 51726U 22016N   23005.01662602 -.00000708  00000-0 -26330-4 0  9990,2 51726  53.2167 125.1015 0002896  42.0371 318.0843 15.08831370 49550,6917.906999999997,95.438,541.775,537.768,0.0
51726.0,STARLINK-3527,PAYLOAD,2023-01-05 09:56:16,15.08824759,0.0002836,53.2172,123.3194,52.0339,308.0909,-4.3332e-05,-9.78e-06,0.0,0 STARLINK-3527,1 51726U 22016N   23005.41407600 -.00000978  00000-0 -43332-4 0  9999,2 51726  53.2172 123.3194 0002836  52.0339 308.0909 15.08824759 49615,6917.927,95.439,541.754,537.83,0.0
51726.0,STARLINK-3527,PAYLOAD,2023-01-05 16:17:48,15.08824696,0.0002715,53.2176,122.1305,48.7424,311.3802,-4.9979e-05,-1.084e-05,0.0,0 STARLINK-3527,1 51726U 22016N   23005.67903873 -.00001084  00000-0 -49979-4 0  9992,2 51726  53.2176 122.1305 0002715  48.7424 311.3802 15.08824696 48598,6917.927,95.439,541.67,537.914,0.0
51726.0,STARLINK-3527,PAYLOAD,2023-01-06 08:11:39,15.08839069,0.0002723999999999,53.2157,119.1546,44.6026,315.5185,0.00017813,2.548e-05,0.0,0 STARLINK-3527,1 51726U 22016N   23006.34143097  .00002548  00000-0  17813-3 0  9996,2 51726  53.2157 119.1546 0002724  44.6026 315.5185 15.08839069 49752,6917.883000000002,95.438,541.633,537.864,0.0
51726.0,STARLINK-3527,PAYLOAD,2023-01-07 06:27:04,15.08830548,0.0002962,53.2174,114.9941,56.8105,303.317,0.00011825,1.593e-05,0.0,0 STARLINK-3527,1 51726U 22016N   23007.26880115  .00001593  00000-0  11825-3 0  9993,2 51726  53.2174 114.9941 0002962  56.8105 303.3170 15.08830548 49897,6917.9090000000015,95.438,541.823,537.725,0.0
